[{"OBJECT_NAME":"COSMOS 2391","OBJECT_ID":"2002-036B","EPOCH":"2026-03-09T23:16:17.370336","MEAN_MOTION":12.44942936,"ECCENTRICITY":0.00273399,"INCLINATION":82.4823,"RA_OF_ASC_NODE":43.5591,"ARG_OF_PERICENTER":108.4207,"MEAN_ANOMALY":251.985,"EPHEMERIS_TYPE":0,"CLASSIFICATION_TYPE":"U","NORAD_CAT_ID":27465,"ELEMENT_SET_NO":999,"REV_AT_EPOCH":7550,"BSTAR":-7.1668495e-5,"MEAN_MOTION_DOT":0,"MEAN_MOTION_DDOT":0},{"OBJECT_NAME":"DELTA 1 DEB","OBJECT_ID":"1973-086GU","EPOCH":"2026-03-09T10:09:35.030304","MEAN_MOTION":12.06644902,"ECCENTRICITY":0.01803409,"INCLINATION":101.7661,"RA_OF_ASC_NODE":231.2909,"ARG_OF_PERICENTER":268.3766,"MEAN_ANOMALY":115.1565,"EPHEMERIS_TYPE":0,"CLASSIFICATION_TYPE":"U","NORAD_CAT_ID":18470,"ELEMENT_SET_NO":999,"REV_AT_EPOCH":80737,"BSTAR":-0.00075408993,"MEAN_MOTION_DOT":-1.09e-6,"MEAN_MOTION_DDOT":0}]
